NANOSATC-BR1            
1 40024U 14033Q   26068.98267556  .00020336  00000+0  74295-3 0  9994
2 40024  98.0845  92.7804 0004644 147.6715 212.4808 15.28136801638811
STARLINK-33841          
1 63771U 25089W   26068.98085940  .00024254  00000+0  88782-3 0  9995
2 63771  43.0011  43.4506 0000840 213.5475 146.5324 15.27586941 48955
